OBJECT_NAME,OBJECT_ID,EPOCH,MEAN_MOTION,ECCENTRICITY,INCLINATION,RA_OF_ASC_NODE,ARG_OF_PERICENTER,MEAN_ANOMALY,EPHEMERIS_TYPE,CLASSIFICATION_TYPE,NORAD_CAT_ID,ELEMENT_SET_NO,REV_AT_EPOCH,BSTAR,MEAN_MOTION_DOT,MEAN_MOTION_DDOT
CUTE-1 (CO-55),2003-031E,2026-07-19T20:13:35.808384,14.24353232,.0010867,98.6745,208.9919,90.7577,269.4847,0,U,27844,999,19632,.73652E-4,.127E-5,0
CUBESAT XI-IV (CO-57),2003-031J,2026-07-19T11:54:35.074656,14.23635874,.00106546,98.6776,208.3362,108.0973,252.1367,0,U,27848,999,19597,.61251528E-4,.96E-6,0
CUBESAT XI-V,2005-043F,2026-07-19T09:42:23.487264,14.72708170,.00153474,98.3022,356.7103,102.9295,257.3627,0,U,28895,999,10649,.10669037E-3,.628E-5,0
CUTE-1.7+APD II (CO-65),2008-021C,2026-07-19T19:03:44.898624,15.09722537,.0006834,97.8299,182.9018,280.3432,79.7026,0,U,32785,999,99011,.122E-3,.19E-4,0
CANX-2,2008-021H,2026-07-19T10:51:05.398848,15.05818132,.00086221,97.8659,180.8656,300.9362,59.1016,0,U,32790,999,98966,.93574337E-4,.1292E-4,0
SEEDS II (CO-66),2008-021J,2026-07-19T10:33:17.970048,15.33752550,.00035468,97.7533,199.9049,147.5625,212.5835,0,U,32791,999,99223,.29357782E-3,.95E-4,0
SWISSCUBE,2009-051B,2026-07-19T17:37:58.034208,14.62535357,.0008016,98.4003,109.1864,106.9807,253.2273,0,U,35932,999,89391,.92894E-4,.422E-5,0
BEESAT-1,2009-051C,2026-07-19T06:46:06.075264,14.61765433,.00063308,98.3929,108.2939,119.2853,240.8981,0,U,35933,999,89387,.83262274E-4,.366E-5,0
ITUPSAT1,2009-051E,2026-07-19T17:05:27.091104,14.60482308,.0008343,98.4013,107.8874,130.5838,229.6088,0,U,35935,999,89348,.75448E-4,.317E-5,0
TISAT 1,2010-035E,2026-07-19T20:00:13.140288,15.32838968,.0004727,98.0714,150.3119,110.8075,249.3672,0,U,36799,999,87270,.354E-3,.11146E-3,0
STRAND-1,2013-009E,2026-07-19T11:59:22.083360,14.37180292,.00096104,98.3939,19.9412,129.5054,230.6984,0,U,39090,999,70170,.50736694E-4,.108E-5,0
BRITE-AUSTRIA,2013-009F,2026-07-19T17:39:00.516096,14.36553479,.0011001,98.4013,19.3683,138.0696,222.1335,0,U,39091,999,70172,.33534E-4,.56E-6,0
NEE-01 PEGASO,2013-018B,2026-07-19T08:27:34.655616,14.93800794,.00135702,98.1263,345.5756,62.0509,298.2082,0,U,39151,999,71550,.14615917E-3,.1491E-4,0
POPACS 2,2013-055E,2026-07-19T18:40:24.949920,14.92145299,.0414546,80.9909,106.8709,89.1844,275.6835,0,U,39269,999,66807,.21962E-3,.13517E-3,-.93082E-6
POPACS 3,2013-055F,2026-07-19T09:46:31.372320,14.56727330,.05482301,81.0009,194.2319,331.8183,25.4302,0,U,39270,999,64324,.17175973E-3,.7218E-4,0
ZACUBE-1 (TSHEPISOSAT),2013-066B,2026-07-19T19:12:07.331040,15.01340631,.0044073,97.8002,163.2958,140.4395,220.0060,0,U,39417,999,68562,.98515E-4,.123E-4,0
WNISAT-1,2013-066H,2026-07-19T09:30:32.580288,14.58125216,.01640951,97.7241,347.2727,130.1631,231.4073,0,U,39423,999,67142,.10875809E-3,.555E-5,0
TRITON-1,2013-066M,2026-07-19T20:16:25.313952,14.81805025,.0090939,97.8217,109.9050,127.1380,233.8184,0,U,39427,999,67892,.13571E-3,.1095E-4,0
GOMX-1,2013-066Q,2026-07-19T19:13:47.771040,14.69548974,.012784,97.6464,39.2056,333.3842,26.0838,0,U,39430,999,67470,.10889E-3,.679E-5,0
CUBEBUG-2 (LO-74),2013-066AA,2026-07-19T19:35:52.302048,14.93985325,.0055546,97.8920,149.9413,279.7020,79.7928,0,U,39440,999,68186,.16876E-3,.179E-4,0
NEE-02 KRYSAOR,2013-066AB,2026-07-19T18:49:38.106912,14.86749402,.0065013,97.8895,139.7708,324.0850,35.6003,0,U,39441,999,68104,.11373E-3,.992E-5,0
FUNCUBE-1 (AO-73),2013-066AE,2026-07-19T20:46:23.787840,15.09856999,.0038023,97.8300,173.0059,92.4857,268.0725,0,U,39444,999,68459,.27601E-3,.4474E-4,0
UWE-3,2013-066AG,2026-07-19T19:57:16.504992,14.97218739,.004767,97.8723,157.1335,208.5998,151.2608,0,U,39446,999,68246,.18817E-3,.2164E-4,0
BRITE-CA1 (TORONTO),2014-033L,2026-07-19T07:27:57.492576,14.72727256,.00787895,97.9776,328.6539,173.0970,187.1343,0,U,40020,999,64694,.8628879E-4,.524E-5,0
DUCHIFAT-1,2014-033M,2026-07-19T16:35:27.108672,15.71893278,.0003278,98.0410,264.6092,229.8179,130.2795,0,U,40021,999,66084,.73904E-3,.96791E-3,0
NANOSATC-BR1,2014-033Q,2026-07-19T08:11:35.545632,15.32407488,.00051454,98.0708,235.6013,86.7681,273.4148,0,U,40024,999,65890,.28662522E-3,.8884E-4,0
QB50P1,2014-033R,2026-07-19T20:01:29.538624,15.18706912,.0010516,98.0972,214.2811,111.1602,249.0755,0,U,40025,999,65798,.21335E-3,.4354E-4,0
QB50P2,2014-033Y,2026-07-19T12:31:27.833952,15.15540194,.00092096,98.0770,199.4267,71.8039,288.4193,0,U,40032,999,65756,.18646868E-3,.3463E-4,0
PERSEUS-M2,2014-033AD,2026-07-19T20:19:44.854752,14.95592046,.0011264,97.9984,152.0584,184.2728,175.8398,0,U,40037,999,65566,.40286E-5,-.17E-6,0
PERSEUS-M1,2014-033AF,2026-07-19T19:36:59.955840,14.95723704,.0011244,97.9654,145.4891,181.1687,178.9509,0,U,40039,999,65551,.41244E-4,.399E-5,0
